[{"OBJECT_NAME":"STARLINK-1680","OBJECT_ID":"2020-070AC","EPOCH":"2026-03-10T00:00:02.999808","MEAN_MOTION":15.76401356,"ECCENTRICITY":0.00075058,"INCLINATION":53.0447,"RA_OF_ASC_NODE":107.962,"ARG_OF_PERICENTER":15.0582,"MEAN_ANOMALY":219.3714,"EPHEMERIS_TYPE":0,"CLASSIFICATION_TYPE":"U","NORAD_CAT_ID":46558,"ELEMENT_SET_NO":999,"REV_AT_EPOCH":596,"BSTAR":0.0012210481,"MEAN_MOTION_DOT":0.00201352,"MEAN_MOTION_DDOT":0},{"OBJECT_NAME":"STARLINK-36573","OBJECT_ID":"2026-014H","EPOCH":"2026-03-09T16:23:15.589248","MEAN_MOTION":15.7522015,"ECCENTRICITY":0.00016866,"INCLINATION":97.2833,"RA_OF_ASC_NODE":313.6351,"ARG_OF_PERICENTER":57.6776,"MEAN_ANOMALY":302.4652,"EPHEMERIS_TYPE":0,"CLASSIFICATION_TYPE":"U","NORAD_CAT_ID":67539,"ELEMENT_SET_NO":999,"REV_AT_EPOCH":857,"BSTAR":0.0012216916,"MEAN_MOTION_DOT":0.00186369,"MEAN_MOTION_DDOT":0}]
